GPS BIIA-23 (PRN 18)    
1 22877U 93068A   19136.44727021 -.00000072  00000-0  00000+0 0  9998
2 22877  54.6640  69.8521 0151080  79.4195 112.9612  2.00560089187237
GPS BIIR-2  (PRN 13)    
1 24876U 97035A   19135.57789301  .00000035  00000-0  00000+0 0  9997
2 24876  55.4597 199.7431 0033196  73.6066 286.8306  2.00564548159819
GPS BIIR-3  (PRN 11)    
1 25933U 99055A   19135.41390219 -.00000095  00000-0  00000+0 0  9992
2 25933  52.1055  47.2516 0164093 108.2205  60.2699  2.00559630143637
GPS BIIR-4  (PRN 20)    
1 26360U 00025A   19137.35612611  .00000033  00000-0  00000+0 0  9995
2 26360  53.3258 125.7232 0042342 137.3232  40.2594  2.00561412139359
GPS BIIR-5  (PRN 28)    
1 26407U 00040A   19135.66652944 -.00000053  00000-0  00000+0 0  9992
2 26407  56.2813 317.8650 0192480 275.9327  95.2453  2.00560477138006
GPS BIIR-6  (PRN 14)    
1 26605U 00071A   19137.25279383  .00000050  00000-0  00000+0 0  9991
2 26605  55.0342 197.1373 0108196 249.2872  99.1408  2.00560235135632
GPS BIIR-8  (PRN 16)    
1 27663U 03005A   19135.48338826 -.00000051  00000-0  00000+0 0  9999
2 27663  56.3420 317.6447 0106912  31.9067 327.2464  2.00575676119369
GPS BIIR-9  (PRN 21)    
1 27704U 03010A   19137.27856008 -.00000077  00000-0  00000+0 0  9995
2 27704  54.3395  69.2973 0248800 277.2322 262.7031  2.00555804118206
GPS BIIR-10 (PRN 22)    
1 28129U 03058A   19136.76680790  .00000046  00000-0  00000+0 0  9990
2 28129  53.1375 128.5384 0074643 282.3267  76.8410  2.00547743112881
GPS BIIR-11 (PRN 19)    
1 28190U 04009A   19137.06807661 -.00000092  00000-0  00000+0 0  9999
2 28190  56.2623  18.3623 0093658  80.0295 137.1640  2.00568529111062
GPS BIIR-12 (PRN 23)    
1 28361U 04023A   19137.34931950  .00000056  00000-0  00000+0 0  9994
2 28361  54.0482 191.5331 0133859 231.1060 102.7871  2.00573400109153
GPS BIIR-13 (PRN 02)    
1 28474U 04045A   19136.14041736 -.00000071  00000-0  00000+0 0  9992
2 28474  54.6971  69.0838 0191433 260.3487 282.0288  2.00559461106508
GPS BIIRM-1 (PRN 17)    
1 28874U 05038A   19135.99682707 -.00000089  00000-0  00000+0 0  9999
2 28874  56.3866  15.7530 0130664 262.1375 281.9811  2.00556120 99898
GPS BIIRM-2 (PRN 31)    
1 29486U 06042A   19137.34696635 -.00000043  00000-0  00000+0 0  9991
2 29486  55.0121 254.2758 0091996 358.8473   2.6153  2.00570643 92645
GPS BIIRM-3 (PRN 12)    
1 29601U 06052A   19136.79344214 -.00000063  00000-0  00000+0 0  9994
2 29601  56.3211 316.5100 0074426  61.0492 299.6931  2.00567141 91543
GPS BIIRM-4 (PRN 15)    
1 32260U 07047A   19135.11028019  .00000050  00000-0  00000+0 0  9996
2 32260  53.1713 187.3430 0111363  43.4827 317.4691  2.00561637 84883
GPS BIIRM-5 (PRN 29)    
1 32384U 07062A   19136.23561135 -.00000090  00000-0  00000+0 0  9990
2 32384  56.4702  16.3809 0008206  97.0844 131.6612  2.00554519 83643
GPS BIIRM-6 (PRN 07)    
1 32711U 08012A   19137.01038495 -.00000044  00000-0  00000+0 0  9994
2 32711  54.7517 253.4866 0128367 219.4545 139.5944  2.00554239 81842
GPS BIIRM-8 (PRN 05)    
1 35752U 09043A   19137.22325253  .00000047  00000-0  00000+0 0  9993
2 35752  54.4206 131.1538 0054837  38.6441 139.6881  2.00561678 71436
GPS BIIF-1  (PRN 25)    
1 36585U 10022A   19136.58785021 -.00000063  00000-0  00000-0 0  9998
2 36585  55.6012 312.8406 0082645  50.2913 131.8418  2.00559037 65678
GPS BIIF-2  (PRN 01)    
1 37753U 11036A   19136.71006455 -.00000067  00000-0  00000-0 0  9998
2 37753  55.8949  72.9858 0086644  39.0576 318.4374  2.00566055 57353
GPS BIIF-3  (PRN 24)    
1 38833U 12053A   19137.19913198 -.00000039  00000-0  00000+0 0  9990
2 38833  53.7861 249.7107 0081689  33.4495 327.0578  2.00558071 48425
GPS BIIF-4  (PRN 27)    
1 39166U 13023A   19134.06746665 -.00000085  00000-0  00000+0 0  9995
2 39166  56.0696  12.6149 0069812  26.0441 334.3476  2.00567659 43901
GPS BIIF-5  (PRN 30)    
1 39533U 14008A   19136.05558553 -.00000051  00000-0  00000+0 0  9998
2 39533  53.9189 255.1492 0040509 192.7796 167.1025  2.00572803 38300
GPS BIIF-6  (PRN 06)    
1 39741U 14026A   19136.84024219 -.00000069  00000-0  00000-0 0  9993
2 39741  55.8750  72.5062 0017755 294.2641  65.5212  2.00574492 36622
GPS BIIF-7  (PRN 09)    
1 40105U 14045A   19135.43583500  .00000047  00000-0  00000+0 0  9991
2 40105  54.5745 191.8971 0010162 103.1802 257.0108  2.00562651 35023
GPS BIIF-8  (PRN 03)    
1 40294U 14068A   19136.29809140  .00000064  00000-0  00000+0 0  9990
2 40294  55.1721 132.7205 0020388  27.9226 332.2002  2.00549820 33267
GPS BIIF-9  (PRN 26)    
1 40534U 15013A   19136.94002124 -.00000068  00000-0  00000+0 0  9992
2 40534  54.5293 311.2008 0037050   6.3845 353.6502  2.00571566 30348
GPS BIIF-10  (PRN 08)   
1 40730U 15033A   19135.10463621 -.00000087  00000-0  00000+0 0  9993
2 40730  55.5949  11.9289 0044722 343.5347  16.3641  2.00556331 28063
GPS BIIF-11  (PRN 10)   
1 41019U 15062A   19137.14757213  .00000052  00000-0  00000+0 0  9996
2 41019  55.1738 132.5013 0046503 208.2604 151.4949  2.00564642 25921
GPS BIIF-12  (PRN 32)   
1 41328U 16007A   19136.24622853  .00000053  00000-0  00000+0 0  9991
2 41328  54.8187 192.2455 0031797 219.7177 140.1297  2.00573335 23964
